{
  "norad_id": 57109,
  "name": "STARLINK-6139",
  "history": [
    {
      "epoch": "2026-03-28T21:54:49.184928Z",
      "apogee_km": 560.3913272123209,
      "perigee_km": 557.7635103904795,
      "latitude_deg": -1.0367355710482603e-05,
      "longitude_deg": 15.2879536737764,
      "height_km": 559.0689028163376,
      "semi_major_axis_km": 6937.2144188014,
      "eccentricity": 0.0001894,
      "inclination_deg": 43.003,
      "raan_deg": 170.3196,
      "arg_perigee_deg": 260.7313,
      "mean_anomaly_deg": 99.3315,
      "mean_motion_rev_day": 15.02536687
    },
    {
      "epoch": "2026-03-28T21:54:49.185792Z",
      "apogee_km": 560.3913272123209,
      "perigee_km": 557.7635103904795,
      "latitude_deg": -1.0367355430843997e-05,
      "longitude_deg": 15.287950063920906,
      "height_km": 559.0689028163397,
      "semi_major_axis_km": 6937.2144188014,
      "eccentricity": 0.0001894,
      "inclination_deg": 43.003,
      "raan_deg": 170.3196,
      "arg_perigee_deg": 260.7313,
      "mean_anomaly_deg": 99.3315,
      "mean_motion_rev_day": 15.02536687
    }
  ]
}